[{"OBJECT_NAME":"HJS-6D","OBJECT_ID":"2025-067D","EPOCH":"2026-03-09T22:49:18.222240","MEAN_MOTION":15.37665042,"ECCENTRICITY":0.00092864,"INCLINATION":54.9903,"RA_OF_ASC_NODE":108.3969,"ARG_OF_PERICENTER":72.3879,"MEAN_ANOMALY":287.8162,"EPHEMERIS_TYPE":0,"CLASSIFICATION_TYPE":"U","NORAD_CAT_ID":63431,"ELEMENT_SET_NO":999,"REV_AT_EPOCH":5274,"BSTAR":0.0003282023,"MEAN_MOTION_DOT":0.00011947,"MEAN_MOTION_DDOT":0},{"OBJECT_NAME":"DELTA 2 R\/B","OBJECT_ID":"1990-074B","EPOCH":"2026-03-09T13:41:18.722976","MEAN_MOTION":14.63139944,"ECCENTRICITY":0.0331131,"INCLINATION":24.7574,"RA_OF_ASC_NODE":207.7051,"ARG_OF_PERICENTER":168.7615,"MEAN_ANOMALY":192.0502,"EPHEMERIS_TYPE":0,"CLASSIFICATION_TYPE":"U","NORAD_CAT_ID":20763,"ELEMENT_SET_NO":999,"REV_AT_EPOCH":86338,"BSTAR":0.00071917,"MEAN_MOTION_DOT":8.858e-5,"MEAN_MOTION_DDOT":0}]
